OBJECT_NAME,OBJECT_ID,EPOCH,MEAN_MOTION,ECCENTRICITY,INCLINATION,RA_OF_ASC_NODE,ARG_OF_PERICENTER,MEAN_ANOMALY,EPHEMERIS_TYPE,CLASSIFICATION_TYPE,NORAD_CAT_ID,ELEMENT_SET_NO,REV_AT_EPOCH,BSTAR,MEAN_MOTION_DOT,MEAN_MOTION_DDOT
SWARM A,2013-067B,2026-07-18T19:54:32.381280,15.51500932,.000334,87.3298,44.4737,92.4204,267.7439,0,U,39452,999,71115,.97405E-4,.5797E-4,0
SWARM C,2013-067C,2026-07-18T19:54:24.463584,15.51500003,.000333,87.3298,43.0545,92.0949,268.0693,0,U,39453,999,71111,.95232E-4,.5669E-4,0
BRITE-CA1 (TORONTO),2014-033L,2026-07-18T15:09:34.801056,14.72726309,.0078735,97.9776,327.9867,175.2635,184.9336,0,U,40020,999,64684,.80468E-4,.485E-5,0
OCO 2,2014-035A,2026-07-18T19:29:06.806976,14.57133691,.0001419,98.2020,140.6249,81.0320,279.1039,0,U,40059,999,64065,.44191E-4,.154E-5,0
BRITE-PL2 (HEWELIUSZ),2014-049B,2026-07-18T18:30:26.392320,14.94691557,.0013984,97.9121,312.0206,10.5778,349.5733,0,U,40119,999,64616,.61509E-4,.608E-5,0
MMS 1,2015-011A,2026-07-18T22:00:01.998720,0.28249869,.8304573,72.4895,348.4166,168.0585,295.3792,0,U,40482,999,137,0,-.127E-4,0
MMS 2,2015-011B,2026-07-18T22:00:01.998720,0.28239753,.8307528,72.4938,348.4159,168.0551,295.3881,0,U,40483,999,137,0,-.1272E-4,0
MMS 3,2015-011C,2026-07-18T22:00:01.998720,0.28239831,.8305894,72.4935,348.4278,168.0628,295.3620,0,U,40484,999,134,0,-.1271E-4,0
MMS 4,2015-011D,2026-07-18T22:00:01.998720,0.28249899,.8305704,72.4888,348.4109,168.0789,295.3357,0,U,40485,999,137,0,-.127E-4,0
ASTROSAT,2015-052A,2026-07-18T18:38:30.323040,14.82555231,.0007516,5.9971,287.9748,128.5415,231.5387,0,U,40930,999,58452,.51165E-4,.1091E-4,0
DAMPE,2015-078A,2026-07-18T20:54:18.484992,15.30858431,.0011177,97.4563,205.4963,332.1617,27.9025,0,U,41173,999,58939,.23064E-4,.611E-5,0
PISAT,2016-059B,2026-07-18T17:58:41.513376,14.69032977,.0030538,97.8193,198.8480,103.9796,256.4809,0,U,41784,999,52437,.75265E-4,.397E-5,0
HXMT (HUIYAN),2017-034A,2026-07-18T20:05:39.619104,15.18705784,.0031836,43.0153,6.7731,343.6262,16.3556,0,U,42758,999,50247,.99358E-4,.1877E-4,0
FLYING LAPTOP,2017-042G,2026-07-18T20:17:57.324768,15.01328064,.0019537,97.4827,354.1910,20.8806,339.3212,0,U,42831,999,49120,.17183E-3,.2162E-4,0
ZHANGHENG 1-01 (CSES-1),2018-015C,2026-07-18T20:26:56.408064,15.20635745,.0016696,97.6900,6.1434,152.7929,207.4184,0,U,43194,999,46945,.15869E-3,.342E-4,0
SALSAT,2020-068K,2026-07-18T00:21:03.770208,15.30195257,.00094957,97.8861,203.9671,182.8082,177.3106,0,U,46495,999,32007,.14176866E-3,.4061E-4,0
IXPE,2021-121A,2026-07-18T20:00:01.999008,15.10506654,.0006904,0.2299,77.7721,196.6898,229.4088,0,U,49954,999,552,.29971E-3,.6007E-4,0
SMILE,2026-109A,2026-07-13T23:01:31.580256,0.47500629,.83137076,70.0512,206.6048,286.9544,0.1879,0,U,69123,999,6,0,.936E-5,0
