SWARM A                 
1 39452U 13067B   26199.82954145  .00005797  00000+0  97405-4 0  9991
2 39452  87.3298  44.4737 0003340  92.4204 267.7439 15.51500932711156
SWARM C                 
1 39453U 13067C   26199.82944981  .00005669  00000+0  95232-4 0  9993
2 39453  87.3298  43.0545 0003330  92.0949 268.0693 15.51500003711111
BRITE-CA1 (TORONTO)     
1 40020U 14033L   26199.63165279  .00000485  00000+0  80468-4 0  9999
2 40020  97.9776 327.9867 0078735 175.2635 184.9336 14.72726309646847
OCO 2                   
1 40059U 14035A   26199.81188434  .00000154  00000+0  44191-4 0  9997
2 40059  98.2020 140.6249 0001419  81.0320 279.1039 14.57133691640658
BRITE-PL2 (HEWELIUSZ)   
1 40119U 14049B   26199.77113880  .00000608  00000+0  61509-4 0  9993
2 40119  97.9121 312.0206 0013984  10.5778 349.5733 14.94691557646161
MMS 1                   
1 40482U 15011A   26199.91668980 -.00001270  00000+0  00000+0 0  9999
2 40482  72.4895 348.4166 8304573 168.0585 295.3792  0.28249869  1376
MMS 2                   
1 40483U 15011B   26199.91668980 -.00001272  00000+0  00000+0 0  9992
2 40483  72.4938 348.4159 8307528 168.0551 295.3881  0.28239753  1373
MMS 3                   
1 40484U 15011C   26199.91668980 -.00001271  00000+0  00000+0 0  9992
2 40484  72.4935 348.4278 8305894 168.0628 295.3620  0.28239831  1347
MMS 4                   
1 40485U 15011D   26199.91668980 -.00001270  00000+0  00000+0 0  9992
2 40485  72.4888 348.4109 8305704 168.0789 295.3357  0.28249899  1371
ASTROSAT                
1 40930U 15052A   26199.77673985  .00001091  00000+0  51165-4 0  9990
2 40930   5.9971 287.9748 0007516 128.5415 231.5387 14.82555231584528
DAMPE                   
1 41173U 15078A   26199.87104728  .00000611  00000+0  23064-4 0  9997
2 41173  97.4563 205.4963 0011177 332.1617  27.9025 15.30858431589398
PISAT                   
1 41784U 16059B   26199.74909159  .00000397  00000+0  75265-4 0  9993
2 41784  97.8193 198.8480 0030538 103.9796 256.4809 14.69032977524378
HXMT (HUIYAN)           
1 42758U 17034A   26199.83726411  .00001877  00000+0  99358-4 0  9990
2 42758  43.0153   6.7731 0031836 343.6262  16.3556 15.18705784502475
FLYING LAPTOP           
1 42831U 17042G   26199.84580237  .00002162  00000+0  17183-3 0  9999
2 42831  97.4827 354.1910 0019537  20.8806 339.3212 15.01328064491208
ZHANGHENG 1-01 (CSES-1) 
1 43194U 18015C   26199.85204176  .00003420  00000+0  15869-3 0  9996
2 43194  97.6900   6.1434 0016696 152.7929 207.4184 15.20635745469457
SALSAT                  
1 46495U 20068K   26199.01462697  .00004061  00000+0  14177-3 0  9999
2 46495  97.8861 203.9671 0009495 182.8082 177.3106 15.30195257320078
IXPE                    
1 49954U 21121A   26199.83335647  .00006007  00000+0  29971-3 0  9997
2 49954   0.2299  77.7721 0006904 196.6898 229.4088 15.10506654  5520
SMILE                   
1 69123U 26109A   26194.95939329  .00000936  00000+0  00000+0 0  9996
2 69123  70.0512 206.6048 8313707 286.9544   0.1879  0.47500629    65
